*******************************************************************************
JPL/HORIZONS               2862 Vavilov (1977 JP)          2023-Sep-04 11:20:21
Rec #:    2862 (+COV) Soln.date: 2023-Aug-23_03:10:52   # obs: 7268 (1931-2023)
 
IAU76/J2000 helio. ecliptic osc. elements (au, days, deg., period=Julian yrs):
 
  EPOCH=  2457453.5 ! 2016-Mar-06.00 (TDB)         Residual RMS= .25703
   EC= .114781001204531    QR= 1.948760498866764   TP= 2457357.905361942
   OM= 225.8368615444625   W=  278.1726854016189   IN= 3.484091533048032
   A= 2.20144450301956     MA= 28.84536206904711   ADIST= 2.454128507172356
   PER= 3.2664             N= .301746653           ANGMOM= .025354524
   DAN= 2.13756            DDN= 2.20848            L= 144.0244754
   B= -3.4486645           MOID= .96469599         TP= 2015-Dec-01.4053619420
 
Asteroid physical parameters (km, seconds, rotational period in hours):
   GM= n.a.                RAD= 3.0155             ROTPER= 3015.
   H= 12.89                G= .150                 B-V= n.a.
                           ALBEDO= .260            STYP= n.a.

ASTEROID comments: 
1: soln ref.= JPL#55, OCC=0
2: source=ORB
*******************************************************************************


*******************************************************************************
Ephemeris / API_USER Mon Sep  4 11:20:21 2023 Pasadena, USA      / Horizons
*******************************************************************************
Target body name: 2862 Vavilov (1977 JP)          {source: JPL#55}
Center body name: Solar System Barycenter (0)     {source: DE441}
Center-site name: BODY CENTER
*******************************************************************************
Start time      : A.D. 2023-Aug-12 00:00:00.0000 TDB
Stop  time      : A.D. 2023-Aug-13 00:00:00.0000 TDB
Step-size       : 2880 minutes
*******************************************************************************
Center geodetic : 0.0, 0.0, 0.0                   {E-lon(deg),Lat(deg),Alt(km)}
Center cylindric: 0.0, 0.0, 0.0                   {E-lon(deg),Dxy(km),Dz(km)}
Center radii    : (undefined)
Small perturbers: Yes                             {source: SB441-N16}
Output units    : KM-S
Calendar mode   : Mixed Julian/Gregorian
Output type     : GEOMETRIC cartesian states
Output format   : 2 (position and velocity)
Reference frame : Ecliptic of J2000.0
*******************************************************************************
Initial IAU76/J2000 heliocentric ecliptic osculating elements (au, days, deg.):
  EPOCH=  2457453.5 ! 2016-Mar-06.00 (TDB)         Residual RMS= .25703        
   EC= .114781001204531    QR= 1.948760498866764   TP= 2457357.905361942       
   OM= 225.8368615444625   W=  278.1726854016189   IN= 3.484091533048032       
  Equivalent ICRF heliocentric cartesian coordinates (au, au/d):
   X=-1.986125433333984E+00  Y= 2.997335682984248E-02  Z=-8.132783614590594E-02
  VX=-7.805615458230108E-04 VY=-1.189398372810765E-02 VZ=-4.604629654021808E-03
Asteroid physical parameters (km, seconds, rotational period in hours):        
   GM= n.a.                RAD= 3.0155             ROTPER= 3015.               
   H= 12.89                G= .150                 B-V= n.a.                   
                           ALBEDO= .260            STYP= n.a.                  
*******************************************************************************
JDTDB
   X     Y     Z
   VX    VY    VZ
*******************************************************************************
$$SOE
2460168.500000000 = A.D. 2023-Aug-12 00:00:00.0000 TDB 
 X = 7.054284700585677E+07 Y =-3.475321531664489E+08 Z = 1.792405460549213E+07
 VX= 1.841643002061523E+01 VY= 2.219652375414378E+00 VZ= 7.076404172975420E-01
$$EOE
*******************************************************************************
 
TIME

  Barycentric Dynamical Time ("TDB" or T_eph) output was requested. This
continuous coordinate time is equivalent to the relativistic proper time
of a clock at rest in a reference frame co-moving with the solar system
barycenter but outside the system's gravity well. It is the independent
variable in the solar system relativistic equations of motion.

  TDB runs at a uniform rate of one SI second per second and is independent
of irregularities in Earth's rotation.
 
CALENDAR SYSTEM

  Mixed calendar mode was active such that calendar dates after AD 1582-Oct-15
(if any) are in the modern Gregorian system. Dates prior to 1582-Oct-5 (if any)
are in the Julian calendar system, which is automatically extended for dates
prior to its adoption on 45-Jan-1 BC.  The Julian calendar is useful for
matching historical dates. The Gregorian calendar more accurately corresponds
to the Earth's orbital motion and seasons. A "Gregorian-only" calendar mode is
available if such physical events are the primary interest.

REFERENCE FRAME AND COORDINATES

  Ecliptic at the standard reference epoch

    Reference epoch: J2000.0
    X-Y plane: adopted Earth orbital plane at the reference epoch
               Note: IAU76 obliquity of 84381.448 arcseconds wrt ICRF X-Y plane
    X-axis   : ICRF
    Z-axis   : perpendicular to the X-Y plane in the directional (+ or -) sense
               of Earth's north pole at the reference epoch.

  Symbol meaning:

    JDTDB    Julian Day Number, Barycentric Dynamical Time
      X      X-component of position vector (km)
      Y      Y-component of position vector (km)
      Z      Z-component of position vector (km)
      VX     X-component of velocity vector (km/sec)                           
      VY     Y-component of velocity vector (km/sec)                           
      VZ     Z-component of velocity vector (km/sec)                           

ABERRATIONS AND CORRECTIONS

 Geometric state vectors have NO corrections or aberrations applied.

Computations by ...

    Solar System Dynamics Group, Horizons On-Line Ephemeris System
    4800 Oak Grove Drive, Jet Propulsion Laboratory
    Pasadena, CA  91109   USA

    General site: https://ssd.jpl.nasa.gov/
    Mailing list: https://ssd.jpl.nasa.gov/email_list.html
    System news : https://ssd.jpl.nasa.gov/horizons/news.html
    User Guide  : https://ssd.jpl.nasa.gov/horizons/manual.html
    Connect     : browser        https://ssd.jpl.nasa.gov/horizons/app.html#/x
                  API            https://ssd-api.jpl.nasa.gov/doc/horizons.html
                  command-line   telnet ssd.jpl.nasa.gov 6775
                  e-mail/batch   https://ssd.jpl.nasa.gov/ftp/ssd/hrzn_batch.txt
                  scripts        https://ssd.jpl.nasa.gov/ftp/ssd/SCRIPTS
    Author      : Jon.D.Giorgini@jpl.nasa.gov
*******************************************************************************
